[{"OBJECT_NAME":"STARLINK-36938","OBJECT_ID":"2026-044Z","EPOCH":"2026-04-05T14:37:15.024288","MEAN_MOTION":15.75325059,"ECCENTRICITY":0.00026569,"INCLINATION":97.2841,"RA_OF_ASC_NODE":57.1684,"ARG_OF_PERICENTER":77.2423,"MEAN_ANOMALY":282.9139,"EPHEMERIS_TYPE":0,"CLASSIFICATION_TYPE":"U","NORAD_CAT_ID":68124,"ELEMENT_SET_NO":999,"REV_AT_EPOCH":572,"BSTAR":0.001646304,"MEAN_MOTION_DOT":0.00254377,"MEAN_MOTION_DDOT":0},{"OBJECT_NAME":"STARLINK-36839","OBJECT_ID":"2026-044AA","EPOCH":"2026-04-05T14:00:03.000384","MEAN_MOTION":15.495965,"ECCENTRICITY":0.00021292,"INCLINATION":97.2858,"RA_OF_ASC_NODE":56.9366,"ARG_OF_PERICENTER":78.737,"MEAN_ANOMALY":13.5753,"EPHEMERIS_TYPE":0,"CLASSIFICATION_TYPE":"U","NORAD_CAT_ID":68125,"ELEMENT_SET_NO":999,"REV_AT_EPOCH":567,"BSTAR":-0.026121896,"MEAN_MOTION_DOT":-0.01303302,"MEAN_MOTION_DDOT":0},{"OBJECT_NAME":"ECHOSTAR 25","OBJECT_ID":"2026-045A","EPOCH":"2026-04-05T11:54:38.646432","MEAN_MOTION":1.00271275,"ECCENTRICITY":0.00018009,"INCLINATION":0.033,"RA_OF_ASC_NODE":281.9299,"ARG_OF_PERICENTER":154.0401,"MEAN_ANOMALY":167.6293,"EPHEMERIS_TYPE":0,"CLASSIFICATION_TYPE":"U","NORAD_CAT_ID":68126,"ELEMENT_SET_NO":999,"REV_AT_EPOCH":26,"BSTAR":0,"MEAN_MOTION_DOT":6.0e-7,"MEAN_MOTION_DDOT":0},{"OBJECT_NAME":"ICOR SV","OBJECT_ID":"2026-046A","EPOCH":"2026-04-05T14:01:18.220224","MEAN_MOTION":16.02418156,"ECCENTRICITY":0.00838926,"INCLINATION":123.0715,"RA_OF_ASC_NODE":329.2342,"ARG_OF_PERICENTER":239.5685,"MEAN_ANOMALY":119.7085,"EPHEMERIS_TYPE":0,"CLASSIFICATION_TYPE":"U","NORAD_CAT_ID":68127,"ELEMENT_SET_NO":999,"REV_AT_EPOCH":388,"BSTAR":0.00060397448,"MEAN_MOTION_DOT":0.0056637,"MEAN_MOTION_DDOT":1.2337993e-5},{"OBJECT_NAME":"FIREFLY ALPHA R/B","OBJECT_ID":"2026-046B","EPOCH":"2026-04-05T12:57:42.288192","MEAN_MOTION":15.58008614,"ECCENTRICITY":0.0017486,"INCLINATION":123.0914,"RA_OF_ASC_NODE":323.4742,"ARG_OF_PERICENTER":32.2847,"MEAN_ANOMALY":327.9281,"EPHEMERIS_TYPE":0,"CLASSIFICATION_TYPE":"U","NORAD_CAT_ID":68128,"ELEMENT_SET_NO":999,"REV_AT_EPOCH":382,"BSTAR":0.0005341256,"MEAN_MOTION_DOT":0.00040703,"MEAN_MOTION_DDOT":0},{"OBJECT_NAME":"GUOWANG GROUP 20 OBJECT A","OBJECT_ID":"2026-047A","EPOCH":"2026-04-05T14:51:07.057152","MEAN_MOTION":13.80809467,"ECCENTRICITY":0.0001124,"INCLINATION":50.0045,"RA_OF_ASC_NODE":321.8806,"ARG_OF_PERICENTER":130.3025,"MEAN_ANOMALY":229.7968,"EPHEMERIS_TYPE":0,"CLASSIFICATION_TYPE":"U","NORAD_CAT_ID":68129,"ELEMENT_SET_NO":999,"REV_AT_EPOCH":333,"BSTAR":4.4322578e-5,"MEAN_MOTION_DOT":-9.6e-7,"MEAN_MOTION_DDOT":0},{"OBJECT_NAME":"GUOWANG GROUP 20 OBJECT B","OBJECT_ID":"2026-047B","EPOCH":"2026-04-05T14:45:37.042848","MEAN_MOTION":13.81038294,"ECCENTRICITY":6.03e-5,"INCLINATION":50.0035,"RA_OF_ASC_NODE":321.8683,"ARG_OF_PERICENTER":277.2278,"MEAN_ANOMALY":82.8548,"EPHEMERIS_TYPE":0,"CLASSIFICATION_TYPE":"U","NORAD_CAT_ID":68130,"ELEMENT_SET_NO":999,"REV_AT_EPOCH":332,"BSTAR":7.4072e-5,"MEAN_MOTION_DOT":-6.4e-7,"MEAN_MOTION_DDOT":0},{"OBJECT_NAME":"GUOWANG GROUP 20 OBJECT C","OBJECT_ID":"2026-047C","EPOCH":"2026-04-05T14:41:01.209120","MEAN_MOTION":13.81638668,"ECCENTRICITY":0.0003062,"INCLINATION":49.9927,"RA_OF_ASC_NODE":321.8947,"ARG_OF_PERICENTER":305.5324,"MEAN_ANOMALY":54.5285,"EPHEMERIS_TYPE":0,"CLASSIFICATION_TYPE":"U","NORAD_CAT_ID":68131,"ELEMENT_SET_NO":999,"REV_AT_EPOCH":333,"BSTAR":4.4686e-5,"MEAN_MOTION_DOT":-9.5e-7,"MEAN_MOTION_DDOT":0},{"OBJECT_NAME":"GUOWANG GROUP 20 OBJECT D","OBJECT_ID":"2026-047D","EPOCH":"2026-04-05T14:36:20.389248","MEAN_MOTION":13.81488231,"ECCENTRICITY":0.0001374,"INCLINATION":50.0062,"RA_OF_ASC_NODE":321.8401,"ARG_OF_PERICENTER":272.414,"MEAN_ANOMALY":87.6597,"EPHEMERIS_TYPE":0,"CLASSIFICATION_TYPE":"U","NORAD_CAT_ID":68132,"ELEMENT_SET_NO":999,"REV_AT_EPOCH":332,"BSTAR":5.5903e-5,"MEAN_MOTION_DOT":-8.3e-7,"MEAN_MOTION_DDOT":0},{"OBJECT_NAME":"GUOWANG GROUP 20 OBJECT E","OBJECT_ID":"2026-047E","EPOCH":"2026-04-03T00:06:50.722272","MEAN_MOTION":13.85521979,"ECCENTRICITY":8.265e-5,"INCLINATION":50.0078,"RA_OF_ASC_NODE":332.0369,"ARG_OF_PERICENTER":23.123,"MEAN_ANOMALY":336.9704,"EPHEMERIS_TYPE":0,"CLASSIFICATION_TYPE":"U","NORAD_CAT_ID":68133,"ELEMENT_SET_NO":999,"REV_AT_EPOCH":297,"BSTAR":4.8670636e-5,"MEAN_MOTION_DOT":-8.9e-7,"MEAN_MOTION_DDOT":0},{"OBJECT_NAME":"GUOWANG GROUP 20 OBJECT F","OBJECT_ID":"2026-047F","EPOCH":"2026-04-05T16:06:39.908736","MEAN_MOTION":13.81871292,"ECCENTRICITY":9.03e-5,"INCLINATION":50.0074,"RA_OF_ASC_NODE":321.5041,"ARG_OF_PERICENTER":171.5425,"MEAN_ANOMALY":188.5486,"EPHEMERIS_TYPE":0,"CLASSIFICATION_TYPE":"U","NORAD_CAT_ID":68134,"ELEMENT_SET_NO":999,"REV_AT_EPOCH":333,"BSTAR":0.00010894,"MEAN_MOTION_DOT":-2.6e-7,"MEAN_MOTION_DDOT":0},{"OBJECT_NAME":"GUOWANG GROUP 20 OBJECT G","OBJECT_ID":"2026-047G","EPOCH":"2026-04-05T14:26:49.911648","MEAN_MOTION":13.82947981,"ECCENTRICITY":0.0005162,"INCLINATION":50.0073,"RA_OF_ASC_NODE":321.8394,"ARG_OF_PERICENTER":264.3686,"MEAN_ANOMALY":95.6621,"EPHEMERIS_TYPE":0,"CLASSIFICATION_TYPE":"U","NORAD_CAT_ID":68135,"ELEMENT_SET_NO":999,"REV_AT_EPOCH":333,"BSTAR":0.00013274,"MEAN_MOTION_DOT":2.0e-8,"MEAN_MOTION_DDOT":0},{"OBJECT_NAME":"GUOWANG GROUP 20 OBJECT H","OBJECT_ID":"2026-047H","EPOCH":"2026-04-05T16:02:09.356640","MEAN_MOTION":13.82123229,"ECCENTRICITY":4.42e-5,"INCLINATION":50.0073,"RA_OF_ASC_NODE":321.486,"ARG_OF_PERICENTER":178.4137,"MEAN_ANOMALY":181.6759,"EPHEMERIS_TYPE":0,"CLASSIFICATION_TYPE":"U","NORAD_CAT_ID":68136,"ELEMENT_SET_NO":999,"REV_AT_EPOCH":333,"BSTAR":4.8154e-5,"MEAN_MOTION_DOT":-9.1e-7,"MEAN_MOTION_DDOT":0},{"OBJECT_NAME":"GUOWANG GROUP 20 OBJECT J","OBJECT_ID":"2026-047J","EPOCH":"2026-04-05T15:57:26.248896","MEAN_MOTION":13.82310019,"ECCENTRICITY":0.000114,"INCLINATION":50.0046,"RA_OF_ASC_NODE":321.4594,"ARG_OF_PERICENTER":155.5004,"MEAN_ANOMALY":204.5945,"EPHEMERIS_TYPE":0,"CLASSIFICATION_TYPE":"U","NORAD_CAT_ID":68137,"ELEMENT_SET_NO":999,"REV_AT_EPOCH":334,"BSTAR":2.2224e-5,"MEAN_MOTION_DOT":-1.19e-6,"MEAN_MOTION_DDOT":0},{"OBJECT_NAME":"CZ-8A R/B","OBJECT_ID":"2026-047K","EPOCH":"2026-04-05T15:31:30.468288","MEAN_MOTION":14.12233895,"ECCENTRICITY":0.00447705,"INCLINATION":49.9532,"RA_OF_ASC_NODE":319.2068,"ARG_OF_PERICENTER":230.8097,"MEAN_ANOMALY":128.883,"EPHEMERIS_TYPE":0,"CLASSIFICATION_TYPE":"U","NORAD_CAT_ID":68138,"ELEMENT_SET_NO":999,"REV_AT_EPOCH":336,"BSTAR":0.00014141141,"MEAN_MOTION_DOT":1.1e-6,"MEAN_MOTION_DDOT":0},{"OBJECT_NAME":"SHIYAN-30 03","OBJECT_ID":"2026-048A","EPOCH":"2026-04-05T09:50:24.687744","MEAN_MOTION":14.91783016,"ECCENTRICITY":0.00024259,"INCLINATION":35.0014,"RA_OF_ASC_NODE":343.9388,"ARG_OF_PERICENTER":76.7823,"MEAN_ANOMALY":283.3153,"EPHEMERIS_TYPE":0,"CLASSIFICATION_TYPE":"U","NORAD_CAT_ID":68139,"ELEMENT_SET_NO":999,"REV_AT_EPOCH":349,"BSTAR":0.00034390012,"MEAN_MOTION_DOT":3.507e-5,"MEAN_MOTION_DDOT":0},{"OBJECT_NAME":"SHIYAN-30 04","OBJECT_ID":"2026-048B","EPOCH":"2026-04-05T09:51:24.791904","MEAN_MOTION":14.91780482,"ECCENTRICITY":9.456e-5,"INCLINATION":34.9929,"RA_OF_ASC_NODE":343.9357,"ARG_OF_PERICENTER":90.4374,"MEAN_ANOMALY":269.644,"EPHEMERIS_TYPE":0,"CLASSIFICATION_TYPE":"U","NORAD_CAT_ID":68140,"ELEMENT_SET_NO":999,"REV_AT_EPOCH":349,"BSTAR":0.00033235167,"MEAN_MOTION_DOT":3.388e-5,"MEAN_MOTION_DDOT":0},{"OBJECT_NAME":"CZ-2D R/B","OBJECT_ID":"2026-048C","EPOCH":"2026-04-05T14:52:44.319360","MEAN_MOTION":14.95600262,"ECCENTRICITY":0.00160034,"INCLINATION":35.1309,"RA_OF_ASC_NODE":342.2617,"ARG_OF_PERICENTER":202.5313,"MEAN_ANOMALY":157.4693,"EPHEMERIS_TYPE":0,"CLASSIFICATION_TYPE":"U","NORAD_CAT_ID":68141,"ELEMENT_SET_NO":999,"REV_AT_EPOCH":353,"BSTAR":0.00020728131,"MEAN_MOTION_DOT":2.321e-5,"MEAN_MOTION_DDOT":0},{"OBJECT_NAME":"STARLINK-36604","OBJECT_ID":"2026-049A","EPOCH":"2026-04-05T14:07:37.411680","MEAN_MOTION":15.75269406,"ECCENTRICITY":0.00012197,"INCLINATION":97.2844,"RA_OF_ASC_NODE":116.1767,"ARG_OF_PERICENTER":80.3916,"MEAN_ANOMALY":279.7487,"EPHEMERIS_TYPE":0,"CLASSIFICATION_TYPE":"U","NORAD_CAT_ID":68142,"ELEMENT_SET_NO":999,"REV_AT_EPOCH":365,"BSTAR":0.00081812398,"MEAN_MOTION_DOT":0.00124112,"MEAN_MOTION_DDOT":0},{"OBJECT_NAME":"STARLINK-36995","OBJECT_ID":"2026-049B","EPOCH":"2026-04-05T14:01:00.488352","MEAN_MOTION":15.75233091,"ECCENTRICITY":0.00016181,"INCLINATION":97.2846,"RA_OF_ASC_NODE":116.1826,"ARG_OF_PERICENTER":86.8522,"MEAN_ANOMALY":273.2928,"EPHEMERIS_TYPE":0,"CLASSIFICATION_TYPE":"U","NORAD_CAT_ID":68143,"ELEMENT_SET_NO":999,"REV_AT_EPOCH":365,"BSTAR":-0.0002650609,"MEAN_MOTION_DOT":-0.00039557,"MEAN_MOTION_DDOT":0},{"OBJECT_NAME":"STARLINK-37020","OBJECT_ID":"2026-049C","EPOCH":"2026-04-05T14:00:03.000384","MEAN_MOTION":15.75230467,"ECCENTRICITY":0.00012149,"INCLINATION":97.2846,"RA_OF_ASC_NODE":116.2061,"ARG_OF_PERICENTER":99.3042,"MEAN_ANOMALY":311.007,"EPHEMERIS_TYPE":0,"CLASSIFICATION_TYPE":"U","NORAD_CAT_ID":68144,"ELEMENT_SET_NO":999,"REV_AT_EPOCH":494,"BSTAR":-0.00036464254,"MEAN_MOTION_DOT":-0.00054268,"MEAN_MOTION_DDOT":0},{"OBJECT_NAME":"STARLINK-36244","OBJECT_ID":"2026-049D","EPOCH":"2026-04-05T14:20:50.135136","MEAN_MOTION":15.7527485,"ECCENTRICITY":0.00015681,"INCLINATION":97.2848,"RA_OF_ASC_NODE":116.163,"ARG_OF_PERICENTER":112.6608,"MEAN_ANOMALY":247.4823,"EPHEMERIS_TYPE":0,"CLASSIFICATION_TYPE":"U","NORAD_CAT_ID":68145,"ELEMENT_SET_NO":999,"REV_AT_EPOCH":365,"BSTAR":0.00092661723,"MEAN_MOTION_DOT":0.00140901,"MEAN_MOTION_DDOT":0},{"OBJECT_NAME":"STARLINK-36980","OBJECT_ID":"2026-049E","EPOCH":"2026-04-05T12:03:50.268960","MEAN_MOTION":15.80906435,"ECCENTRICITY":0.00012787,"INCLINATION":97.2845,"RA_OF_ASC_NODE":116.141,"ARG_OF_PERICENTER":79.6946,"MEAN_ANOMALY":280.4466,"EPHEMERIS_TYPE":0,"CLASSIFICATION_TYPE":"U","NORAD_CAT_ID":68146,"ELEMENT_SET_NO":999,"REV_AT_EPOCH":364,"BSTAR":0.00071430209,"MEAN_MOTION_DOT":0.00139463,"MEAN_MOTION_DDOT":0}]
